[{"OBJECT_NAME":"STARLINK-36599","OBJECT_ID":"2026-020X","EPOCH":"2026-03-09T22:00:01.999584","MEAN_MOTION":15.61906227,"ECCENTRICITY":0.00011786,"INCLINATION":42.9994,"RA_OF_ASC_NODE":140.289,"ARG_OF_PERICENTER":283.2784,"MEAN_ANOMALY":217.7323,"EPHEMERIS_TYPE":0,"CLASSIFICATION_TYPE":"U","NORAD_CAT_ID":67638,"ELEMENT_SET_NO":999,"REV_AT_EPOCH":604,"BSTAR":-0.02497472,"MEAN_MOTION_DOT":-0.01966241,"MEAN_MOTION_DDOT":0},{"OBJECT_NAME":"STARLINK-32335","OBJECT_ID":"2024-195S","EPOCH":"2026-03-09T22:00:01.999584","MEAN_MOTION":15.5379623,"ECCENTRICITY":0.00142813,"INCLINATION":53.1479,"RA_OF_ASC_NODE":149.8644,"ARG_OF_PERICENTER":3.406,"MEAN_ANOMALY":158.0753,"EPHEMERIS_TYPE":0,"CLASSIFICATION_TYPE":"U","NORAD_CAT_ID":61703,"ELEMENT_SET_NO":999,"REV_AT_EPOCH":583,"BSTAR":0.0040457397,"MEAN_MOTION_DOT":0.00274037,"MEAN_MOTION_DDOT":0}]
